[
  {
    "OBJECT_ID": "1958-002B",
    "OBJECT_NAME": "VANGUARD 1",
    "NORAD_CAT_ID": "5",
    "OBJECT_TYPE": "PAYLOAD",
    "PERIOD": "132.751",
    "INCLINATION": "34.2503",
    "APOGEE": "3835.266",
    "PERIGEE": "648.985",
    "ECCENTRICITY": "0.1848135",
    "MEAN_MOTION": "10.84731161",
    "TLE_LINE1": "1 00005U 58002B   16238.29297367 -.00000068  00000-0 -10544-3 0  9998",
    "TLE_LINE2": "2 00005  34.2503 196.2255 1848135 208.5544 140.0257 10.84731161 54158"
  },
  {
    "OBJECT_ID": "1959-001A",
    "OBJECT_NAME": "VANGUARD 2",
    "NORAD_CAT_ID": "11",
    "OBJECT_TYPE": "PAYLOAD",
    "PERIOD": "121.487",
    "INCLINATION": "32.8725",
    "APOGEE": "2940.509",
    "PERIGEE": "554.137",
    "ECCENTRICITY": "0.1468454",
    "MEAN_MOTION": "11.85307269",
    "TLE_LINE1": "1    11U 59001A   16238.87762969 +.00000360 +00000-0 +18250-3 0  9999",
    "TLE_LINE2": "2    11 032.8725 238.6809 1468454 317.6718 031.9228 11.85307269109784"
  },
  {
    "OBJECT_ID": "1959-001B",
    "OBJECT_NAME": "VANGUARD R/B",
    "NORAD_CAT_ID": "12",
    "OBJECT_TYPE": "ROCKET BODY",
    "PERIOD": "125.875",
    "INCLINATION": "32.9042",
    "APOGEE": "3327.752",
    "PERIGEE": "555.843",
    "ECCENTRICITY": "0.1665824",
    "MEAN_MOTION": "11.43992025",
    "TLE_LINE1": "1 00012U 59001B   16239.15172182  .00000126  00000-0  64531-4 0  9998",
    "TLE_LINE2": "2 00012  32.9042 177.9531 1665824 322.3872  27.0867 11.43992025363151"
  },
  {
    "OBJECT_ID": "1958-002A",
    "OBJECT_NAME": "VANGUARD R/B",
    "NORAD_CAT_ID": "16",
    "OBJECT_TYPE": "ROCKET BODY",
    "PERIOD": "137.315",
    "INCLINATION": "34.2589",
    "APOGEE": "4225.003",
    "PERIGEE": "652.112",
    "ECCENTRICITY": "0.2026208",
    "MEAN_MOTION": "10.4868288",
    "TLE_LINE1": "1    16U 58002A   16238.90133476 -.00000016 +00000-0 -85225-5 0  9991",
    "TLE_LINE2": "2    16 034.2589 212.5038 2026208 130.6378 248.8864 10.48682880312741"
  },
  {
    "OBJECT_ID": "1959-007A",
    "OBJECT_NAME": "VANGUARD 3",
    "NORAD_CAT_ID": "20",
    "OBJECT_TYPE": "PAYLOAD",
    "PERIOD": "124.649",
    "INCLINATION": "33.3422",
    "APOGEE": "3265.641",
    "PERIGEE": "509.736",
    "ECCENTRICITY": "0.1667048",
    "MEAN_MOTION": "11.55243413",
    "TLE_LINE1": "1 00020U 59007A   16238.87343153  .00000419  00000-0  18081-3 0  9992",
    "TLE_LINE2": "2 00020  33.3422  98.3225 1667048  86.7277 292.1782 11.55243413 69633"
  },
  {
    "OBJECT_ID": "1959-009A",
    "OBJECT_NAME": "EXPLORER 7",
    "NORAD_CAT_ID": "22",
    "OBJECT_TYPE": "PAYLOAD",
    "PERIOD": "96.407",
    "INCLINATION": "50.2848",
    "APOGEE": "686.488",
    "PERIGEE": "486.555",
    "ECCENTRICITY": "0.0143534",
    "MEAN_MOTION": "14.93664878",
    "TLE_LINE1": "1 00022U 59009A   16239.34719180  .00000573  00000-0  67445-4 0  9996",
    "TLE_LINE2": "2 00022  50.2848 143.0484 0143534 348.8659  10.9122 14.93664878 17278"
  },
  {
    "OBJECT_ID": "1960-002B",
    "OBJECT_NAME": "TIROS 1",
    "NORAD_CAT_ID": "29",
    "OBJECT_TYPE": "PAYLOAD",
    "PERIOD": "97.687",
    "INCLINATION": "48.3805",
    "APOGEE": "664.797",
    "PERIGEE": "631.310",
    "ECCENTRICITY": "0.002383",
    "MEAN_MOTION": "14.74086771",
    "TLE_LINE1": "1 00029U 60002B   16239.48448022 -.00000093  00000-0  17205-4 0  9994",
    "TLE_LINE2": "2 00029  48.3805  31.8670 0023830  42.0532 318.2203 14.74086771 13422"
  },
  {
    "OBJECT_ID": "1960-007A",
    "OBJECT_NAME": "TRANSIT 2A",
    "NORAD_CAT_ID": "45",
    "OBJECT_TYPE": "PAYLOAD",
    "PERIOD": "100.453",
    "INCLINATION": "66.6937",
    "APOGEE": "968.261",
    "PERIGEE": "591.836",
    "ECCENTRICITY": "0.0262933",
    "MEAN_MOTION": "14.3350262",
    "TLE_LINE1": "1    45U 60007A   16238.92769970 -.00000067 +00000-0 +10425-4 0  9991",
    "TLE_LINE2": "2    45 066.6937 087.4860 0262933 248.9899 108.2894 14.33502620866418"
  },
  {
    "OBJECT_ID": "1960-007B",
    "OBJECT_NAME": "SOLRAD 1 (GREB)",
    "NORAD_CAT_ID": "46",
    "OBJECT_TYPE": "PAYLOAD",
    "PERIOD": "99.384",
    "INCLINATION": "66.6898",
    "APOGEE": "873.654",
    "PERIGEE": "584.731",
    "ECCENTRICITY": "0.0203257",
    "MEAN_MOTION": "14.48916087",
    "TLE_LINE1": "1    46U 60007B   16238.95939128 +.00000071 +00000-0 +37564-4 0  9996",
    "TLE_LINE2": "2    46 066.6898 205.4662 0203257 088.2401 274.1974 14.48916087937485"
  },
  {
    "OBJECT_ID": "1960-007C",
    "OBJECT_NAME": "THOR ABLESTAR R/B",
    "NORAD_CAT_ID": "47",
    "OBJECT_TYPE": "ROCKET BODY",
    "PERIOD": "99.871",
    "INCLINATION": "66.6646",
    "APOGEE": "920.125",
    "PERIGEE": "584.663",
    "ECCENTRICITY": "0.023523",
    "MEAN_MOTION": "14.41850034",
    "TLE_LINE1": "1 00047U 60007C   16239.22706895 -.00000005  00000-0  23944-4 0  9996",
    "TLE_LINE2": "2 00047  66.6646 274.3326 0235230 241.7991 115.9180 14.41850034934531"
  },
  {
    "OBJECT_ID": "1960-009B",
    "OBJECT_NAME": "DELTA 1 R/B",
    "NORAD_CAT_ID": "50",
    "OBJECT_TYPE": "ROCKET BODY",
    "PERIOD": "118.023",
    "INCLINATION": "47.2307",
    "APOGEE": "1682.426",
    "PERIGEE": "1501.818",
    "ECCENTRICITY": "0.0113301",
    "MEAN_MOTION": "12.20096703",
    "TLE_LINE1": "1    50U 60009B   16238.82990954 -.00000064 +00000-0 +20441-3 0  9991",
    "TLE_LINE2": "2    50 047.2307 120.3598 0113301 138.1708 222.7806 12.20096703500311"
  },
  {
    "OBJECT_ID": "1960-009C",
    "OBJECT_NAME": "ECHO 1 DEB (METAL OBJ)",
    "NORAD_CAT_ID": "51",
    "OBJECT_TYPE": "DEBRIS",
    "PERIOD": "118.201",
    "INCLINATION": "47.2145",
    "APOGEE": "1682.976",
    "PERIGEE": "1517.269",
    "ECCENTRICITY": "0.0103849",
    "MEAN_MOTION": "12.18261767",
    "TLE_LINE1": "1    51U 60009C   16238.70409881 -.00000114 +00000-0 -28505-3 0  9999",
    "TLE_LINE2": "2    51 047.2145 333.1180 0103849 344.2218 015.5346 12.18261767494427"
  },
  {
    "OBJECT_ID": "1960-009E",
    "OBJECT_NAME": "ECHO 1 DEB (METAL OBJ)",
    "NORAD_CAT_ID": "53",
    "OBJECT_TYPE": "DEBRIS",
    "PERIOD": "118.305",
    "INCLINATION": "47.2748",
    "APOGEE": "1684.925",
    "PERIGEE": "1524.671",
    "ECCENTRICITY": "0.0100373",
    "MEAN_MOTION": "12.17191693",
    "TLE_LINE1": "1 00053U 60009E   16239.41382032 -.00000084  00000-0  00000+0 0  9999",
    "TLE_LINE2": "2 00053  47.2748 228.5025 0100373 290.7555  68.2503 12.17191693499133"
  },
  {
    "OBJECT_ID": "1960-013A",
    "OBJECT_NAME": "COURIER 1B",
    "NORAD_CAT_ID": "58",
    "OBJECT_TYPE": "PAYLOAD",
    "PERIOD": "106.959",
    "INCLINATION": "28.3276",
    "APOGEE": "1209.101",
    "PERIGEE": "962.676",
    "ECCENTRICITY": "0.0165075",
    "MEAN_MOTION": "13.46304233",
    "TLE_LINE1": "1 00058U 60013A   16239.51609926  .00000096  00000-0  20734-4 0  9997",
    "TLE_LINE2": "2 00058  28.3276 311.1331 0165075  73.6791 288.1840 13.46304233751567"
  },
  {
    "OBJECT_ID": "1960-013B",
    "OBJECT_NAME": "THOR ABLESTAR R/B",
    "NORAD_CAT_ID": "59",
    "OBJECT_TYPE": "ROCKET BODY",
    "PERIOD": "106.434",
    "INCLINATION": "28.2473",
    "APOGEE": "1202.328",
    "PERIGEE": "920.581",
    "ECCENTRICITY": "0.0189357",
    "MEAN_MOTION": "13.52942223",
    "TLE_LINE1": "1    59U 60013B   16238.88848346 +.00000108 +00000-0 +27427-4 0  9998",
    "TLE_LINE2": "2    59 028.2473 166.1820 0189357 126.6896 235.1207 13.52942223758000"
  },
  {
    "OBJECT_ID": "1961-004B",
    "OBJECT_NAME": "SCOUT X-1 R/B",
    "NORAD_CAT_ID": "82",
    "OBJECT_TYPE": "ROCKET BODY",
    "PERIOD": "117.476",
    "INCLINATION": "38.8579",
    "APOGEE": "2494.749",
    "PERIGEE": "640.243",
    "ECCENTRICITY": "0.1166997",
    "MEAN_MOTION": "12.25773223",
    "TLE_LINE1": "1    82U 61004B   16238.63465162 +.00000045 +00000-0 +66256-4 0  9992",
    "TLE_LINE2": "2    82 038.8579 310.6644 1166997 207.8043 145.5229 12.25773223636994"
  },
  {
    "OBJECT_ID": "1961-004C",
    "OBJECT_NAME": "SCOUT X-1 DEB",
    "NORAD_CAT_ID": "85",
    "OBJECT_TYPE": "DEBRIS",
    "PERIOD": "101.709",
    "INCLINATION": "38.7754",
    "APOGEE": "1126.899",
    "PERIGEE": "552.298",
    "ECCENTRICITY": "0.0398048",
    "MEAN_MOTION": "14.1579838",
    "TLE_LINE1": "1 00085U 61004C   16237.45132548  .00000309  00000-0  91248-4 0  9995",
    "TLE_LINE2": "2 00085  38.7754 265.2274 0398048 247.3948 108.4228 14.15798380733189"
  },
  {
    "OBJECT_ID": "1961-013A",
    "OBJECT_NAME": "EXPLORER 11",
    "NORAD_CAT_ID": "107",
    "OBJECT_TYPE": "PAYLOAD",
    "PERIOD": "102.276",
    "INCLINATION": "28.7894",
    "APOGEE": "1265.400",
    "PERIGEE": "467.434",
    "ECCENTRICITY": "0.0550735",
    "MEAN_MOTION": "14.07944057",
    "TLE_LINE1": "1   107U 61013A   16238.92231688 +.00000474 +00000-0 +44365-4 0  9999",
    "TLE_LINE2": "2   107 028.7894 115.6025 0550735 337.9482 019.8224 14.07944057769862"
  },
  {
    "OBJECT_ID": "1960-002D",
    "OBJECT_NAME": "THOR ABLE DEB (YO)",
    "NORAD_CAT_ID": "115",
    "OBJECT_TYPE": "DEBRIS",
    "PERIOD": "97.110",
    "INCLINATION": "48.1668",
    "APOGEE": "644.937",
    "PERIGEE": "595.731",
    "ECCENTRICITY": "0.0035155",
    "MEAN_MOTION": "14.82853207",
    "TLE_LINE1": "1 00115U 60002D   16239.08628114  .00000021  00000-0  29918-4 0  9992",
    "TLE_LINE2": "2 00115  48.1668 121.6195 0035155 240.0747 119.6672 14.82853207  6424"
  },
  {
    "OBJECT_ID": "1961-015A",
    "OBJECT_NAME": "TRANSIT 4A",
    "NORAD_CAT_ID": "116",
    "OBJECT_TYPE": "PAYLOAD",
    "PERIOD": "103.471",
    "INCLINATION": "66.8115",
    "APOGEE": "983.083",
    "PERIGEE": "862.336",
    "ECCENTRICITY": "0.0082694",
    "MEAN_MOTION": "13.91691787",
    "TLE_LINE1": "1 00116U 61015A   16238.92093340 -.00000024  00000-0  40401-4 0  9991",
    "TLE_LINE2": "2 00116  66.8115   9.7645 0082694 264.4067  94.7577 13.91691787798663"
  }
]
